FLOCK 4G-13             
1 62621U 25009N   26068.70638971  .00053076  00000+0  16695-2 0  9995
2 62621  97.4019 151.0918 0003801 292.7207  67.3633 15.32770015 63700
STARLINK-33725          
1 63717U 25087W   26068.70699303  .00046247  00000+0  15649-2 0  9994
2 63717  53.1574 219.3748 0001106  58.2900 301.8208 15.30177870 49203
